NORAD_CAT_ID,OBJECT_NAME,OBJECT_TYPE,EPOCH,MEAN_MOTION,ECCENTRICITY,INCLINATION,RA_OF_ASC_NODE,ARG_OF_PERICENTER,MEAN_ANOMALY,BSTAR,MEAN_MOTION_DOT,MEAN_MOTION_DDOT,TLE_LINE0,TLE_LINE1,TLE_LINE2,SEMIMAJOR_AXIS,PERIOD,APOGEE,PERIGEE,DECAYED
53923.0,STARLINK-5004,PAYLOAD,2024-02-19 08:35:09,15.088439,0.0001524,53.2173,77.829,102.5682,257.5481,0.00012051,1.631e-05,0.0,0 STARLINK-5004,1 53923U 22119AP  24050.35775147  .00001631  00000-0  12051-3 0  9990,2 53923  53.2173  77.8290 0001524 102.5682 257.5481 15.08843900 78289,6917.868,95.437,540.788,538.679,0.0
53923.0,STARLINK-5004,PAYLOAD,2024-02-20 02:04:25,15.0883378,0.0001532,53.2184,74.5603,98.3495,261.7671,3.9302e-05,3.37e-06,0.0,0 STARLINK-5004,1 53923U 22119AP  24051.08640101  .00000337  00000-0  39302-4 0  9993,2 53923  53.2184  74.5603 0001532  98.3495 261.7671 15.08833780 78391,6917.899,95.438,540.824,538.705,0.0
53923.0,STARLINK-5004,PAYLOAD,2024-02-20 08:25:56,15.08848697,0.0001561,53.2175,73.372,95.2543,264.8627,0.00017066,2.43e-05,0.0,0 STARLINK-5004,1 53923U 22119AP  24051.35134927  .00002430  00000-0  17066-3 0  9995,2 53923  53.2175  73.3720 0001561  95.2543 264.8627 15.08848697 78433,6917.854,95.437,540.799,538.639,0.0
53923.0,STARLINK-5004,PAYLOAD,2024-02-20 17:58:15,15.08841103,0.000153,53.217,71.5846,86.3866,273.7301,6.9972e-05,8.26e-06,0.0,0 STARLINK-5004,1 53923U 22119AP  24051.74879595  .00000826  00000-0  69972-4 0  9996,2 53923  53.2170  71.5846 0001530  86.3866 273.7301 15.08841103 78491,6917.877,95.437,540.8,538.684,0.0
53923.0,STARLINK-5004,PAYLOAD,2024-02-21 08:16:44,15.08836028,0.0001577,53.2183,68.9115,96.0721,264.0451,-3.9176e-05,-9.11e-06,0.0,0 STARLINK-5004,1 53923U 22119AP  24052.34496273 -.00000911  00000-0 -39176-4 0  9991,2 53923  53.2183  68.9115 0001577  96.0721 264.0451 15.08836028 78582,6917.893,95.438,540.848,538.667,0.0
53923.0,STARLINK-5004,PAYLOAD,2024-02-21 17:49:03,15.08832131,0.0001632,53.2189,67.127,95.6001,264.5177,1.8437e-05,5e-08,0.0,0 STARLINK-5004,1 53923U 22119AP  24052.74240511  .00000005  00000-0  18437-4 0  9996,2 53923  53.2189  67.1270 0001632  95.6001 264.5177 15.08832131 79064,6917.904,95.438,540.898,538.64,0.0
53923.0,STARLINK-5004,PAYLOAD,2024-02-22 08:07:32,15.0883803,0.0001695,53.2188,64.4508,93.6428,266.4758,-5.5486e-05,-1.171e-05,0.0,0 STARLINK-5004,1 53923U 22119AP  24053.33856652 -.00001171  00000-0 -55486-4 0  9993,2 53923  53.2188  64.4508 0001695  93.6428 266.4758 15.08838030 79157,6917.886,95.438,540.924,538.579,0.0
53923.0,STARLINK-5004,PAYLOAD,2024-02-22 17:39:50,15.08843962,0.0001629,53.2186,62.6646,85.8857,274.2321,-3.2402e-05,-8.04e-06,0.0,0 STARLINK-5004,1 53923U 22119AP  24053.73600201 -.00000804  00000-0 -32402-4 0  9999,2 53923  53.2186  62.6646 0001629  85.8857 274.2321 15.08843962 78796,6917.868,95.437,540.86,538.606,0.0
53923.0,STARLINK-5004,PAYLOAD,2024-02-23 07:58:18,15.08842626,0.0001604,53.2182,59.988,86.6644,273.4532,0.00013023,1.785e-05,0.0,0 STARLINK-5004,1 53923U 22119AP  24054.33216051  .00001785  00000-0  13023-3 0  9996,2 53923  53.2182  59.9880 0001604  86.6644 273.4532 15.08842626 79306,6917.872,95.437,540.847,538.628,0.0
53923.0,STARLINK-5004,PAYLOAD,2024-02-23 17:30:37,15.08841211,0.0001652,53.2185,58.2045,87.5623,272.5558,0.00012213,1.656e-05,0.0,0 STARLINK-5004,1 53923U 22119AP  24054.72960261  .00001656  00000-0  12213-3 0  9995,2 53923  53.2185  58.2045 0001652  87.5623 272.5558 15.08841211 79367,6917.877,95.437,540.885,538.599,0.0
53923.0,STARLINK-5004,PAYLOAD,2024-02-24 04:38:20,15.08836126,0.0001668,53.2184,56.1236,88.1886,271.9297,9.9549e-05,1.296e-05,0.0,0 STARLINK-5004,1 53923U 22119AP  24055.19328756  .00001296  00000-0  99549-4 0  9992,2 53923  53.2184  56.1236 0001668  88.1886 271.9297 15.08836126 79014,6917.892,95.438,540.911,538.603,0.0
53923.0,STARLINK-5004,PAYLOAD,2024-02-24 09:24:28,15.08844677,0.0001475,53.2171,55.2273,99.9939,260.122,0.00010124,1.324e-05,0.0,0 STARLINK-5004,1 53923U 22119AP  24055.39200104  .00001324  00000-0  10124-3 0  9993,2 53923  53.2171  55.2273 0001475  99.9939 260.1220 15.08844677 79045,6917.866,95.437,540.751,538.711,0.0
53923.0,STARLINK-5004,PAYLOAD,2024-02-24 17:21:25,15.08838642,0.0001482,53.2171,53.7393,102.3624,257.7534,4.2733e-05,3.92e-06,0.0,0 STARLINK-5004,1 53923U 22119AP  24055.72320648  .00000392  00000-0  42733-4 0  9992,2 53923  53.2171  53.7393 0001482 102.3624 257.7534 15.08838642 79099,6917.885,95.438,540.775,538.724,0.0
53923.0,STARLINK-5004,PAYLOAD,2024-02-25 09:15:15,15.08847572,0.0001699,53.2187,50.7651,87.1638,272.9549,5.1734e-05,5.36e-06,0.0,0 STARLINK-5004,1 53923U 22119AP  24056.38560003  .00000536  00000-0  51734-4 0  9997,2 53923  53.2187  50.7651 0001699  87.1638 272.9549 15.08847572 79193,6917.857,95.437,540.898,538.547,0.0
53923.0,STARLINK-5004,PAYLOAD,2024-02-25 17:12:11,15.08846027,0.0001478,53.2178,49.28,103.5573,256.5584,7.6712e-05,9.33e-06,0.0,0 STARLINK-5004,1 53923U 22119AP  24056.71679912  .00000933  00000-0  76712-4 0  9998,2 53923  53.2178  49.2800 0001478 103.5573 256.5584 15.08846027 79661,6917.862,95.437,540.749,538.705,0.0
53923.0,STARLINK-5004,PAYLOAD,2024-02-26 05:55:16,15.08851293,0.0001569,53.2184,46.9009,103.7363,256.3804,5.1725e-05,5.36e-06,0.0,0 STARLINK-5004,1 53923U 22119AP  24057.24671672  .00000536  00000-0  51725-4 0  9998,2 53923  53.2184  46.9009 0001569 103.7363 256.3804 15.08851293 79746,6917.846,95.437,540.796,538.625,0.0
53923.0,STARLINK-5004,PAYLOAD,2024-02-27 04:10:41,15.08833766,0.000159,53.219,42.7386,98.518,261.5992,-6.837e-06,-3.97e-06,0.0,0 STARLINK-5004,1 53923U 22119AP  24058.17409016 -.00000397  00000-0 -68370-5 0  9994,2 53923  53.2190  42.7386 0001590  98.5180 261.5992 15.08833766 79467,6917.899,95.438,540.864,538.664,0.0
53923.0,STARLINK-5004,PAYLOAD,2024-02-27 05:46:04,15.08838727,0.0001478,53.2186,42.4426,95.4879,264.6282,-6.6826e-05,-1.351e-05,0.0,0 STARLINK-5004,1 53923U 22119AP  24058.24032916 -.00001351  00000-0 -66826-4 0  9997,2 53923  53.2186  42.4426 0001478  95.4879 264.6282 15.08838727 79895,6917.884,95.438,540.772,538.727,0.0
53923.0,STARLINK-5004,PAYLOAD,2024-02-28 04:01:27,15.08843262,0.0001637,53.2192,38.2795,103.9274,256.19,5.0877e-05,5.22e-06,0.0,0 STARLINK-5004,1 53923U 22119AP  24059.16768425  .00000522  00000-0  50877-4 0  9996,2 53923  53.2192  38.2795 0001637 103.9274 256.1900 15.08843262 79618,6917.87,95.437,540.868,538.603,0.0
53923.0,STARLINK-5004,PAYLOAD,2024-02-28 05:36:50,15.08843154,0.0001463,53.2192,37.9847,95.0521,265.0638,8.9179e-05,1.132e-05,0.0,0 STARLINK-5004,1 53923U 22119AP  24059.23392355  .00001132  00000-0  89179-4 0  9994,2 53923  53.2192  37.9847 0001463  95.0521 265.0638 15.08843154 80041,6917.871,95.437,540.748,538.724,0.0
53923.0,STARLINK-5004,PAYLOAD,2024-02-28 23:06:06,15.08829903,0.0001701,53.2198,34.7157,107.7196,252.3982,8.2168e-05,1.02e-05,0.0,0 STARLINK-5004,1 53923U 22119AP  24059.96257346  .00001020  00000-0  82168-4 0  9991,2 53923  53.2198  34.7157 0001701 107.7196 252.3982 15.08829903 80159,6917.911,95.438,540.953,538.6,0.0
53923.0,STARLINK-5004,PAYLOAD,2024-02-29 03:52:15,15.08830428,0.0001672,53.2197,33.8234,107.3134,252.8041,7.2178e-05,8.61e-06,0.0,0 STARLINK-5004,1 53923U 22119AP  24060.16129442  .00000861  00000-0  72178-4 0  9992,2 53923  53.2197  33.8234 0001672 107.3134 252.8041 15.08830428 79769,6917.91,95.438,540.931,538.618,0.0
53923.0,STARLINK-5004,PAYLOAD,2024-02-29 05:27:39,15.08830623,0.00017,53.2199,33.5255,107.8797,252.2381,6.9853e-05,8.24e-06,0.0,0 STARLINK-5004,1 53923U 22119AP  24060.22753482  .00000824  00000-0  69853-4 0  9991,2 53923  53.2199  33.5255 0001700 107.8797 252.2381 15.08830623 80190,6917.909,95.438,540.95,538.598,0.0
53923.0,STARLINK-5004,PAYLOAD,2024-02-29 14:59:57,15.08832848,0.0001609,53.2199,31.7411,95.2987,264.8189,4.9401e-05,4.98e-06,0.0,0 STARLINK-5004,1 53923U 22119AP  24060.62497613  .00000498  00000-0  49401-4 0  9990,2 53923  53.2199  31.7411 0001609  95.2987 264.8189 15.08832848 80256,6917.902,95.438,540.88,538.654,0.0
53923.0,STARLINK-5004,PAYLOAD,2024-03-01 03:43:02,15.08844106,0.0001913,53.2197,29.3623,105.7353,254.385,-1.3168e-05,-4.98e-06,0.0,0 STARLINK-5004,1 53923U 22119AP  24061.15489186 -.00000498  00000-0 -13168-4 0  9998,2 53923  53.2197  29.3623 0001913 105.7353 254.3850 15.08844106 79914,6917.868,95.437,541.056,538.409,0.0
53923.0,STARLINK-5004,PAYLOAD,2024-03-01 06:53:48,15.08850104,0.0001765,53.2186,28.7662,102.924,257.195,-1.6821e-06,-3.15e-06,0.0,0 STARLINK-5004,1 53923U 22119AP  24061.28736728 -.00000315  00000-0 -16821-5 0  9997,2 53923  53.2186  28.7662 0001765 102.9240 257.1950 15.08850104 80354,6917.85,95.437,540.936,538.494,0.0
53923.0,STARLINK-5004,PAYLOAD,2024-03-01 14:50:44,15.0884175,0.0001312,53.2183,27.2771,87.1166,272.9976,3.857e-05,3.26e-06,0.0,0 STARLINK-5004,1 53923U 22119AP  24061.61857091  .00000326  00000-0  38570-4 0  9995,2 53923  53.2183  27.2771 0001312  87.1166 272.9976 15.08841750 80401,6917.875,95.437,540.648,538.832,0.0
53923.0,STARLINK-5004,PAYLOAD,2024-03-02 05:09:12,15.08844448,0.0001473,53.2188,24.6013,87.9683,272.1477,0.00010775,1.427e-05,0.0,0 STARLINK-5004,1 53923U 22119AP  24062.21472811  .00001427  00000-0  10775-3 0  9994,2 53923  53.2188  24.6013 0001473  87.9683 272.1477 15.08844448 80074,6917.867,95.437,540.751,538.713,0.0
53923.0,STARLINK-5004,PAYLOAD,2024-03-03 03:24:36,15.08839405,0.0001334,53.218,20.4388,90.2597,269.8548,6.0512e-05,6.75e-06,0.0,0 STARLINK-5004,1 53923U 22119AP  24063.14209207  .00000675  00000-0  60512-4 0  9993,2 53923  53.2180  20.4388 0001334  90.2597 269.8548 15.08839405 80217,6917.882,95.438,540.67,538.824,0.0
53923.0,STARLINK-5004,PAYLOAD,2024-03-03 20:53:51,15.0884393,0.0001589,53.2177,17.1684,86.0104,274.1069,-2.8524e-05,-7.42e-06,0.0,0 STARLINK-5004,1 53923U 22119AP  24063.87073216 -.00000742  00000-0 -28524-4 0  9996,2 53923  53.2177  17.1684 0001589  86.0104 274.1069 15.08843930 80747,6917.868,95.437,540.833,538.634,0.0
